NORAD_CAT_ID,OBJECT_NAME,OBJECT_TYPE,EPOCH,MEAN_MOTION,ECCENTRICITY,INCLINATION,RA_OF_ASC_NODE,ARG_OF_PERICENTER,MEAN_ANOMALY,BSTAR,MEAN_MOTION_DOT,MEAN_MOTION_DDOT,TLE_LINE0,TLE_LINE1,TLE_LINE2,SEMIMAJOR_AXIS,PERIOD,APOGEE,PERIGEE,DECAYED
52624.0,STARLINK-4009,PAYLOAD,2023-04-24 13:38:41,15.08865209,0.0001536,53.2164,303.2783,82.4939,277.6228,0.001041,0.0001633,0.0,0 STARLINK-4009,1 52624U 22052AC  23114.56853014  .00016330  00000-0  10410-2 0  9994,2 52624  53.2164 303.2783 0001536  82.4939 277.6228 15.08865209 52452,6917.803,95.436,540.731,538.606,0.0
52624.0,STARLINK-4009,PAYLOAD,2023-04-24 16:49:26,15.08909305,0.0001422,53.2163,302.6834,83.616,276.4995,0.003081,0.00049182,0.0,0 STARLINK-4009,1 52624U 22052AC  23114.70100386  .00049182  00000-0  30810-2 0  9994,2 52624  53.2163 302.6834 0001422  83.6160 276.4995 15.08909305 52852,6917.669,95.433,540.517,538.55,0.0
52624.0,STARLINK-4009,PAYLOAD,2023-04-25 03:57:09,15.08795028,0.0001576,53.2162,300.6017,104.1686,255.9481,-0.0033648,-0.00053377,0.0,0 STARLINK-4009,1 52624U 22052AC  23115.16468951 -.00053377  00000-0 -33648-2 0  9995,2 52624  53.2162 300.6017 0001576 104.1686 255.9481 15.08795028 52929,6918.018,95.44,540.973,538.793,0.0
52624.0,STARLINK-4009,PAYLOAD,2023-04-25 11:54:06,15.08766369,0.0001402,53.2161,299.1155,106.2718,253.8428,-0.0023988,-0.00038186,0.0,0 STARLINK-4009,1 52624U 22052AC  23115.49590516 -.00038186  00000-0 -23988-2 0  9991,2 52624  53.2161 299.1155 0001402 106.2718 253.8428 15.08766369 52597,6918.105,95.442,540.94,539.001,0.0
52624.0,STARLINK-4009,PAYLOAD,2023-04-26 02:12:37,15.08802312,0.0001638,53.2161,296.44,121.6677,238.4475,0.0031555,0.00050238,0.0,0 STARLINK-4009,1 52624U 22052AC  23116.09209544  .00050238  00000-0  31555-2 0  9995,2 52624  53.2161 296.4400 0001638 121.6677 238.4475 15.08802312 53069,6917.996,95.44,540.994,538.727,0.0
52624.0,STARLINK-4009,PAYLOAD,2023-04-26 13:20:19,15.08846671,0.0001617,53.2163,294.3585,120.5162,239.5989,0.0019886,0.00031508,0.0,0 STARLINK-4009,1 52624U 22052AC  23116.55577713  .00031508  00000-0  19886-2 0  9994,2 52624  53.2163 294.3585 0001617 120.5162 239.5989 15.08846671 52759,6917.86,95.437,540.844,538.606,0.0
52624.0,STARLINK-4009,PAYLOAD,2023-04-26 21:17:14,15.08874832,0.000156,53.2164,292.8719,120.5716,239.543,0.0014544,0.00022957,0.0,0 STARLINK-4009,1 52624U 22052AC  23116.88697045  .00022957  00000-0  14544-2 0  9995,2 52624  53.2164 292.8719 0001560 120.5716 239.5430 15.08874832 52801,6917.774,95.435,540.718,538.56,0.0
52624.0,STARLINK-4009,PAYLOAD,2023-04-26 22:52:37,15.08878568,0.0001558,53.2163,292.5745,120.6794,239.4352,0.0013833,0.00021819,0.0,0 STARLINK-4009,1 52624U 22052AC  23116.95320869  .00021819  00000-0  13833-2 0  9996,2 52624  53.2163 292.5745 0001558 120.6794 239.4352 15.08878568 53195,6917.763,95.435,540.705,538.55,0.0
52624.0,STARLINK-4009,PAYLOAD,2023-04-27 06:49:32,15.08873862,0.0001538,53.2163,291.0876,114.255,245.8603,0.0010754,0.00016884,0.0,0 STARLINK-4009,1 52624U 22052AC  23117.28440613  .00016884  00000-0  10754-2 0  9998,2 52624  53.2163 291.0876 0001538 114.2550 245.8603 15.08873862 53249,6917.777,95.435,540.706,538.578,0.0
52624.0,STARLINK-4009,PAYLOAD,2023-04-27 13:11:04,15.08872592,0.0001502,53.2164,289.8976,121.1219,238.9921,0.00065866,0.00010219,0.0,0 STARLINK-4009,1 52624U 22052AC  23117.54936108  .00010219  00000-0  65866-3 0  9997,2 52624  53.2164 289.8976 0001502 121.1219 238.9921 15.08872592 53285,6917.781,95.435,540.685,538.607,0.0
52624.0,STARLINK-4009,PAYLOAD,2023-04-28 06:40:18,15.08861229,0.0001562,53.2161,286.6258,118.6467,241.4682,0.00012441,1.694e-05,0.0,0 STARLINK-4009,1 52624U 22052AC  23118.27799181  .00001694  00000-0  12441-3 0  9994,2 52624  53.2161 286.6258 0001562 118.6467 241.4682 15.08861229 53392,6917.816,95.436,540.761,538.6,0.0
52624.0,STARLINK-4009,PAYLOAD,2023-04-28 17:48:00,15.0885171,9.81e-05,53.2168,284.5455,99.311,260.7993,0.00022532,3.301e-05,0.0,0 STARLINK-4009,1 52624U 22052AC  23118.74167153  .00003301  00000-0  22532-3 0  9993,2 52624  53.2168 284.5455 0000981  99.3110 260.7993 15.08851710 53460,6917.845,95.437,540.388,539.031,0.0
52624.0,STARLINK-4009,PAYLOAD,2023-04-29 11:17:15,15.0884361,0.0001616,53.2159,281.2741,101.4952,258.6221,0.00042694,6.514e-05,0.0,0 STARLINK-4009,1 52624U 22052AC  23119.47031259  .00006514  00000-0  42694-3 0  9991,2 52624  53.2159 281.2741 0001616 101.4952 258.6221 15.08843610 53579,6917.869,95.437,540.852,538.616,0.0
52624.0,STARLINK-4009,PAYLOAD,2023-04-29 12:52:38,15.08842017,0.0001345,53.216,280.9753,99.5042,260.6102,0.00035342,5.342e-05,0.0,0 STARLINK-4009,1 52624U 22052AC  23119.53655281  .00005342  00000-0  35342-3 0  9995,2 52624  53.2160 280.9753 0001345  99.5042 260.6102 15.08842017 53207,6917.874,95.437,540.67,538.809,0.0
52624.0,STARLINK-4009,PAYLOAD,2023-04-30 11:08:02,15.08839143,0.0001374,53.2155,276.8093,113.2708,246.8428,6.9076e-05,8.12e-06,0.0,0 STARLINK-4009,1 52624U 22052AC  23120.46391205  .00000812  00000-0  69076-4 0  9991,2 52624  53.2155 276.8093 0001374 113.2708 246.8428 15.08839143 53727,6917.883,95.438,540.699,538.797,0.0
52624.0,STARLINK-4009,PAYLOAD,2023-04-30 14:18:48,15.08841646,0.0001409,53.2167,276.2132,121.7536,238.3594,0.00011872,1.602e-05,0.0,0 STARLINK-4009,1 52624U 22052AC  23120.59639097  .00001602  00000-0  11872-3 0  9997,2 52624  53.2167 276.2132 0001409 121.7536 238.3594 15.08841646 53361,6917.875,95.437,540.715,538.766,0.0
52624.0,STARLINK-4009,PAYLOAD,2023-04-30 20:40:20,15.08847774,0.0001133,53.2173,275.0237,101.9617,258.1502,0.00021702,3.168e-05,0.0,0 STARLINK-4009,1 52624U 22052AC  23120.86134886  .00003168  00000-0  21702-3 0  9995,2 52624  53.2173 275.0237 0001133 101.9617 258.1502 15.08847774 53788,6917.857,95.437,540.505,538.938,0.0
52624.0,STARLINK-4009,PAYLOAD,2023-05-01 14:09:35,15.0883141,9.58e-05,53.2161,271.7586,90.006,270.1042,-8.2476e-05,-1.6e-05,0.0,0 STARLINK-4009,1 52624U 22052AC  23121.58999718 -.00001600  00000-0 -82476-4 0  9995,2 52624  53.2161 271.7586 0000958  90.0060 270.1042 15.08831410 53513,6917.907,95.438,540.434,539.109,0.0
52624.0,STARLINK-4009,PAYLOAD,2023-05-01 17:20:21,15.08838758,9.72e-05,53.2163,271.1624,95.9548,264.1554,7.94e-05,9.76e-06,0.0,0 STARLINK-4009,1 52624U 22052AC  23121.72247469  .00000976  00000-0  79400-4 0  9996,2 52624  53.2163 271.1624 0000972  95.9548 264.1554 15.08838758 53910,6917.884,95.438,540.422,539.077,0.0
52624.0,STARLINK-4009,PAYLOAD,2023-05-02 14:00:22,15.0884662,8.22e-05,53.2158,267.299,102.3094,257.799,0.00024584,3.628e-05,0.0,0 STARLINK-4009,1 52624U 22052AC  23122.58359346  .00003628  00000-0  24584-3 0  9998,2 52624  53.2158 267.2990 0000822 102.3094 257.7990 15.08846620 53660,6917.86,95.437,540.294,539.157,0.0
52624.0,STARLINK-4009,PAYLOAD,2023-05-02 17:11:08,15.08854727,8.95e-05,53.2158,266.7037,87.4151,272.6943,0.00051045,7.849e-05,0.0,0 STARLINK-4009,1 52624U 22052AC  23122.71607205  .00007849  00000-0  51045-3 0  9994,2 52624  53.2158 266.7037 0000895  87.4151 272.6943 15.08854727 54069,6917.835,95.437,540.32,539.081,0.0
52624.0,STARLINK-4009,PAYLOAD,2023-05-03 09:05:00,15.08844215,0.0001227,53.2144,263.7318,75.717,284.3959,0.00016599,2.355e-05,0.0,0 STARLINK-4009,1 52624U 22052AC  23123.37847654  .00002355  00000-0  16599-3 0  9993,2 52624  53.2144 263.7318 0001227  75.7170 284.3959 15.08844215 54163,6917.868,95.437,540.581,538.884,0.0
52624.0,STARLINK-4009,PAYLOAD,2023-05-03 13:51:09,15.0884189,9.79e-05,53.2159,262.8383,78.478,281.6322,0.00014368,2e-05,0.0,0 STARLINK-4009,1 52624U 22052AC  23123.57719676  .00002000  00000-0  14368-3 0  9996,2 52624  53.2159 262.8383 0000979  78.4780 281.6322 15.08841890 53812,6917.875,95.437,540.417,539.062,0.0
52624.0,STARLINK-4009,PAYLOAD,2023-05-03 17:01:55,15.08847004,9.1e-05,53.216,262.2429,89.4944,270.6152,0.00027836,4.146e-05,0.0,0 STARLINK-4009,1 52624U 22052AC  23123.70967513  .00004146  00000-0  27836-3 0  9993,2 52624  53.2160 262.2429 0000910  89.4944 270.6152 15.08847004 53832,6917.859,95.437,540.354,539.094,0.0
52624.0,STARLINK-4009,PAYLOAD,2023-05-04 02:34:14,15.08837888,8.84e-05,53.216,260.4591,79.3771,280.732,0.0001051,1.385e-05,0.0,0 STARLINK-4009,1 52624U 22052AC  23124.10711794  .00001385  00000-0  10510-3 0  9999,2 52624  53.2160 260.4591 0000884  79.3771 280.7320 15.08837888 54275,6917.887,95.438,540.363,539.14,0.0
52624.0,STARLINK-4009,PAYLOAD,2023-05-04 13:41:56,15.08845458,8.77e-05,53.217,258.3761,82.2579,277.8512,0.00013919,1.928e-05,0.0,0 STARLINK-4009,1 52624U 22052AC  23124.57079498  .00001928  00000-0  13919-3 0  9997,2 52624  53.2170 258.3761 0000877  82.2579 277.8512 15.08845458 53969,6917.864,95.437,540.335,539.122,0.0
52624.0,STARLINK-4009,PAYLOAD,2023-05-04 18:28:05,15.08853546,8.71e-05,53.2164,257.4839,82.8491,277.26,0.00044442,6.795e-05,0.0,0 STARLINK-4009,1 52624U 22052AC  23124.76951366  .00006795  00000-0  44442-3 0  9993,2 52624  53.2164 257.4839 0000871  82.8491 277.2600 15.08853546 54376,6917.839,95.437,540.307,539.101,0.0
52624.0,STARLINK-4009,PAYLOAD,2023-05-05 02:25:02,15.0883896,0.0001346,53.2171,255.9944,93.0481,267.0665,0.00020244,2.935e-05,0.0,0 STARLINK-4009,1 52624U 22052AC  23125.10071889  .00002935  00000-0  20244-3 0  9991,2 52624  53.2171 255.9944 0001346  93.0481 267.0665 15.08838960 54422,6917.884,95.438,540.68,538.817,0.0
52624.0,STARLINK-4009,PAYLOAD,2023-05-05 15:08:07,15.08843331,0.0001066,53.2165,253.618,98.033,262.0783,0.00018544,2.665e-05,0.0,0 STARLINK-4009,1 52624U 22052AC  23125.63063852  .00002665  00000-0  18544-3 0  9990,2 52624  53.2165 253.6180 0001066  98.0330 262.0783 15.08843331 54120,6917.87,95.437,540.473,538.998,0.0
52624.0,STARLINK-4009,PAYLOAD,2023-05-06 13:23:31,15.0885146,0.000122,53.2163,249.4569,68.8157,291.2966,0.00036381,5.509e-05,0.0,0 STARLINK-4009,1 52624U 22052AC  23126.55799885  .00005509  00000-0  36381-3 0  9993,2 52624  53.2163 249.4569 0001220  68.8157 291.2966 15.08851460 54260,6917.845,95.437,540.554,538.866,0.0
